PROX-1                  
1 44339U 19036A   26185.79439382  .00025964  00000+0  25234-2 0  9992
2 44339  23.9963 356.5997 0005282 243.1464 116.8495 14.91076607376104
NPSAT1                  
1 44340U 19036B   26186.11721712  .00009607  00000+0  13679-2 0  9998
2 44340  23.9986 100.9652 0007475  55.8983 304.2222 14.74756549375145
FORMOSAT 7-3            
1 44343U 19036E   26185.96096791  .00007358  00000+0  42076-3 0  9990
2 44343  23.9997  56.1986 0000957 114.2527 245.8077 15.09937412385939
FORMOSAT 7-1            
1 44349U 19036L   26185.91606182  .00003515  00000+0  27536-3 0  9997
2 44349  23.9981 272.8679 0001026  47.1047 312.9540 14.96586906387311
FORMOSAT 7-4            
1 44350U 19036M   26185.80528228  .00004279  00000+0  34085-3 0  9996
2 44350  23.9997 335.7207 0001424  47.2725 312.7896 14.96582301386712
FORMOSAT 7-2            
1 44351U 19036N   26185.89431041  .00003875  00000+0  30625-3 0  9999
2 44351  23.9997  29.4335 0000862  49.3621 310.6955 14.96578734386241
FORMOSAT 7-6            
1 44353U 19036Q   26186.22729036  .00003416  00000+0  26685-3 0  9995
2 44353  23.9964 208.0028 0000734 328.4033  31.6424 14.96587400384527
FORMOSAT 7-5            
1 44358U 19036V   26186.00456984  .00002486  00000+0  18730-3 0  9993
2 44358  23.9966 148.2502 0000539  94.4140 265.6423 14.96562948385022
METEOR-M2 2             
1 44387U 19038A   26186.29790448  .00000606  00000+0  28207-3 0  9996
2 44387  98.9155 173.8515 0001274  21.2489 338.8742 14.24372522363879
GLOBAL-4                
1 44499U 19054E   26185.56493865  .00106521  00000+0  10028-2 0  9994
2 44499  45.0044 136.0113 0003934 113.4500 246.6811 15.66079115383088
ZY-1 02D                
1 44528U 19059A   26186.33269097  .00000325  00000+0  12914-3 0  9998
2 44528  98.6712 247.8408 0003571 335.9874  24.1144 14.35267060356943
TAURUS-1 (JINNIUZUO 1)  
1 44530U 19059C   26186.32185451  .00006603  00000+0  10525-2 0  9991
2 44530  98.6435 352.2775 0007426 250.4769 109.5634 14.72297062361318
ZHUHAI-1 03B            
1 44536U 19060C   26186.27079457  .00038390  00000+0  56804-3 0  9990
2 44536  97.5551 345.0271 0007783 243.5778 116.4677 15.55171248379133
ZHUHAI-1 03D            
1 44538U 19060E   26186.29704501  .00038919  00000+0  67224-3 0  9994
2 44538  97.5402 337.0182 0006948 228.6031 131.4624 15.50869519378880
ZHUHAI-1 03E            
1 44539U 19060F   26186.35631013  .00020341  00000+0  48356-3 0  9994
2 44539  97.5637 336.9431 0004641 322.3103  37.7818 15.41683596378563
GAOFEN-7                
1 44703U 19072A   26186.28687153  .00005332  00000+0  23976-3 0  9992
2 44703  97.2413 247.0703 0016841 338.3502  21.7020 15.21403945370391
JILIN-1 GAOFEN 2A       
1 44777U 19075A   26186.26910679  .00020747  00000+0  52412-3 0  9990
2 44777  97.4958 270.4873 0006175  30.9619 329.1990 15.39822752367666
NINGXIA-1 1             
1 44779U 19076A   26186.20977595 -.00000016  00000+0  74058-4 0  9996
2 44779  45.0056  99.3114 0011590 245.9862 113.9760 14.02041011340381
NINGXIA-1 5             
1 44783U 19076E   26186.29370495 -.00000118  00000+0  77638-5 0  9997
2 44783  45.0054  98.2714 0011235 237.4402 122.5347 14.02088195340314
KL-ALPHA A              
1 44785U 19077A   26186.34585404  .00000001  00000+0 -16945-4 0  9998
2 44785  88.9233 220.5790 0013103  61.5300 298.7172 13.56044766328192
CARTOSAT-3              
1 44804U 19081A   26186.33569596  .00006644  00000+0  31742-3 0  9997
2 44804  97.4288 247.9107 0013493  91.6058 268.6723 15.19276393366228
JILIN-1 GAOFEN 2B       
1 44836U 19086A   26186.17549011  .00009729  00000+0  44181-3 0  9997
2 44836  97.4869 258.0554 0012533 253.9145 106.0711 15.20921025363221
TIANQIN 1 (CAS-6)       
1 44879U 19093A   26186.28867601  .00003871  00000+0  35422-3 0  9992
2 44879  97.7797 269.9989 0010876 359.4967   0.6240 14.95525282354756
ETRSS-1                 
1 44880U 19093B   26186.29019986  .00004294  00000+0  38786-3 0  9996
2 44880  97.7813 270.4754 0011071 359.4595   0.6612 14.95969586354762
TIANYAN 01              
1 44881U 19093C   26186.28629073  .00001241  00000+0  14591-3 0  9997
2 44881  97.7521 258.0766 0014392  32.7829 327.4277 14.86549495354102
TIANYAN 02              
1 44882U 19093D   26186.26642324  .00009287  00000+0  64949-3 0  9990
2 44882  97.7942 281.2324 0012545 326.2267  33.8159 15.05456437355331
CBERS 4A                
1 44883U 19093E   26186.25905623  .00000807  00000+0  10998-3 0  9998
2 44883  98.0181 253.7144 0000838 135.8533 224.2746 14.81430554353754
WEILAI 1R               
1 44884U 19093F   26186.25718179  .00008367  00000+0  66130-3 0  9995
2 44884  97.7874 276.1734 0016693 341.1464  18.9139 15.00810537355138
