OBJECT_NAME,OBJECT_ID,EPOCH,MEAN_MOTION,ECCENTRICITY,INCLINATION,RA_OF_ASC_NODE,ARG_OF_PERICENTER,MEAN_ANOMALY,EPHEMERIS_TYPE,CLASSIFICATION_TYPE,NORAD_CAT_ID,ELEMENT_SET_NO,REV_AT_EPOCH,BSTAR,MEAN_MOTION_DOT,MEAN_MOTION_DDOT
PROX-1,2019-036A,2026-07-04T19:03:55.626048,14.91076607,.00052825,23.9963,356.5997,243.1464,116.8495,0,U,44339,999,37610,.25234017E-2,.25964E-3,0
NPSAT1,2019-036B,2026-07-05T02:48:47.559168,14.74756549,.00074758,23.9986,100.9652,55.8983,304.2222,0,U,44340,999,37514,.13679393E-2,.9607E-4,0
FORMOSAT 7-3,2019-036E,2026-07-04T23:03:47.627424,15.09937412,.00009574,23.9997,56.1986,114.2527,245.8077,0,U,44343,999,38593,.4207586E-3,.7358E-4,0
FORMOSAT 7-1,2019-036L,2026-07-04T21:59:07.741248,14.96586906,.00010261,23.9981,272.8679,47.1047,312.9540,0,U,44349,999,38731,.27535526E-3,.3515E-4,0
FORMOSAT 7-4,2019-036M,2026-07-04T19:19:36.388992,14.96582301,.00014247,23.9997,335.7207,47.2725,312.7896,0,U,44350,999,38671,.34085058E-3,.4279E-4,0
FORMOSAT 7-2,2019-036N,2026-07-04T21:27:48.419424,14.96578734,.00008622,23.9997,29.4335,49.3621,310.6955,0,U,44351,999,38624,.30624544E-3,.3875E-4,0
FORMOSAT 7-6,2019-036Q,2026-07-05T05:27:17.887104,14.96587400,.0000734,23.9964,208.0028,328.4033,31.6424,0,U,44353,999,38452,.2668484E-3,.3416E-4,0
FORMOSAT 7-5,2019-036V,2026-07-05T00:06:34.834176,14.96562948,.00005399,23.9966,148.2502,94.4140,265.6423,0,U,44358,999,38502,.18729846E-3,.2486E-4,0
METEOR-M2 2,2019-038A,2026-07-05T07:08:58.947072,14.24372522,.0001274,98.9155,173.8515,21.2489,338.8742,0,U,44387,999,36387,.28206932E-3,.606E-5,0
GLOBAL-4,2019-054E,2026-07-04T13:33:30.699360,15.66079115,.00039348,45.0044,136.0113,113.4500,246.6811,0,U,44499,999,38308,.10028234E-2,.106521E-2,0
ZY-1 02D,2019-059A,2026-07-05T07:59:04.499808,14.35267060,.00035717,98.6712,247.8408,335.9874,24.1144,0,U,44528,999,35694,.12913541E-3,.325E-5,0
TAURUS-1 (JINNIUZUO 1),2019-059C,2026-07-05T07:43:28.229664,14.72297062,.00074266,98.6435,352.2775,250.4769,109.5634,0,U,44530,999,36131,.10524837E-2,.6603E-4,0
ZHUHAI-1 03B,2019-060C,2026-07-05T06:29:56.650848,15.55171248,.00077838,97.5551,345.0271,243.5778,116.4677,0,U,44536,999,37913,.56804114E-3,.3839E-3,0
ZHUHAI-1 03D,2019-060E,2026-07-05T07:07:44.688864,15.50869519,.0006948,97.5402,337.0182,228.6031,131.4624,0,U,44538,999,37888,.67224233E-3,.38919E-3,0
ZHUHAI-1 03E,2019-060F,2026-07-05T08:33:05.195232,15.41683596,.00046411,97.5637,336.9431,322.3103,37.7818,0,U,44539,999,37856,.4835568E-3,.20341E-3,0
GAOFEN-7,2019-072A,2026-07-05T06:53:05.700192,15.21403945,.00168414,97.2413,247.0703,338.3502,21.7020,0,U,44703,999,37039,.23976058E-3,.5332E-4,0
JILIN-1 GAOFEN 2A,2019-075A,2026-07-05T06:27:30.826656,15.39822752,.00061758,97.4958,270.4873,30.9619,329.1990,0,U,44777,999,36766,.52412105E-3,.20747E-3,0
NINGXIA-1 1,2019-076A,2026-07-05T05:02:04.642080,14.02041011,.00115909,45.0056,99.3114,245.9862,113.9760,0,U,44779,999,34038,.74057812E-4,-.16E-6,0
NINGXIA-1 5,2019-076E,2026-07-05T07:02:56.107680,14.02088195,.00112358,45.0054,98.2714,237.4402,122.5347,0,U,44783,999,34031,.7763842E-5,-.118E-5,0
KL-ALPHA A,2019-077A,2026-07-05T08:18:01.789056,13.56044766,.00131039,88.9233,220.5790,61.5300,298.7172,0,U,44785,999,32819,-.16945095E-4,.1E-7,0
CARTOSAT-3,2019-081A,2026-07-05T08:03:24.130944,15.19276393,.00134935,97.4288,247.9107,91.6058,268.6723,0,U,44804,999,36622,.31742379E-3,.6644E-4,0
JILIN-1 GAOFEN 2B,2019-086A,2026-07-05T04:12:42.345504,15.20921025,.0012533,97.4869,258.0554,253.9145,106.0711,0,U,44836,999,36322,.44180625E-3,.9729E-4,0
TIANQIN 1 (CAS-6),2019-093A,2026-07-05T06:55:41.607264,14.95525282,.00108763,97.7797,269.9989,359.4967,0.6240,0,U,44879,999,35475,.35421934E-3,.3871E-4,0
ETRSS-1,2019-093B,2026-07-05T06:57:53.267904,14.95969586,.00110718,97.7813,270.4754,359.4595,0.6612,0,U,44880,999,35476,.38785696E-3,.4294E-4,0
TIANYAN 01,2019-093C,2026-07-05T06:52:15.519072,14.86549495,.00143922,97.7521,258.0766,32.7829,327.4277,0,U,44881,999,35410,.14590898E-3,.1241E-4,0
TIANYAN 02,2019-093D,2026-07-05T06:23:38.967936,15.05456437,.0012545,97.7942,281.2324,326.2267,33.8159,0,U,44882,999,35533,.64948909E-3,.9287E-4,0
CBERS 4A,2019-093E,2026-07-05T06:13:02.458272,14.81430554,.00008386,98.0181,253.7144,135.8533,224.2746,0,U,44883,999,35375,.1099773E-3,.807E-5,0
WEILAI 1R,2019-093F,2026-07-05T06:10:20.506656,15.00810537,.0016693,97.7874,276.1734,341.1464,18.9139,0,U,44884,999,35513,.66130457E-3,.8367E-4,0
